#cP2023 10 30  0  0  0.00000000      96 ORBIT IGS20 HLM  IGS
## 2286  86400.00000000   900.00000000 60247 0.0000000000000
+   32   G01G02G03G04G05G06G07G08G09G10G11G12G13G14G15G16G17
+        G18G19G20G21G22G23G24G25G26G27G28G29G30G31G32  0  0
+          0  0  0  0  0  0  0  0  0  0  0  0  0  0  0  0  0
+          0  0  0  0  0  0  0  0  0  0  0  0  0  0  0  0  0
+          0  0  0  0  0  0  0  0  0  0  0  0  0  0  0  0  0
++         2  2  2  2  2  2  2  2  2  2  2  2  2  2  2  2  2
++         2  2  2  2  2  2  2  2  2  2  2  2  2  2  2  0  0
++         0  0  0  0  0  0  0  0  0  0  0  0  0  0  0  0  0
++         0  0  0  0  0  0  0  0  0  0  0  0  0  0  0  0  0
++         0  0  0  0  0  0  0  0  0  0  0  0  0  0  0  0  0
%c G  cc GPS ccc cccc cccc cccc cccc ccccc ccccc ccccc ccccc
%c cc cc ccc ccc cccc cccc cccc cccc ccccc ccccc ccccc ccccc
%f  1.2500000  1.025000000  0.00000000000  0.000000000000000
%f  0.0000000  0.000000000  0.00000000000  0.000000000000000
%i    0    0    0    0      0      0      0      0         0
%i    0    0    0    0      0      0      0      0         0
/* RAPID ORBIT COMBINATION FROM WEIGHTED AVERAGE OF:        
/* cod emr esa gfz grg jgx jpl ngs sio usn whu              
/* REFERENCED TO IGS TIME (IGST) AND TO WEIGHTED MEAN POLE: 
/* PCV:IGS20      OL/AL:FES2014b NONE     Y  ORB:CMB CLK:CMB
*  2023 10 30 18  0  0.00000000
PG01 -17977.224636  -8816.465340  17282.055393    163.296372  8  5  5 111       
PG02 -19875.582203 -12635.823812  12968.973727   -535.417084  6  8  5  81       
PG03 -16961.927428   2711.622151  20078.828679    -46.484160  5  5  4 100       
PG04 -26612.041097   -908.887810    367.427521    199.156417  8  4  4  70       
PG05  10662.802435  11693.189359 -21499.649681   -148.506604  5  6  3 103       
PG06   3729.319668  23073.401762  12595.506918    518.433380  5  6  5  96       
PG07 -12061.896510   9390.339427 -21220.294066     26.480416  2  8  4 103       
PG08 -24165.359569  -6016.010878  -9879.159112   -149.738130  6  3  4  80       
PG09 -23775.266443   7423.889460  -9394.641880    -17.447108  4  4  5  97       
PG10  10225.673147 -23977.076523   4251.453886    -59.430464  5  5  4  89       
PG11  11897.528470  23767.004272    771.165176   -438.555823  5  9  4  88       
PG12  16595.865162    580.284660  20438.215354   -441.629879  6  1  6  98       
PG13  16853.888050  13258.649019 -16010.302265    589.850567  6  7  6 136       
PG14 -13200.136597  22928.291639    707.843277    229.114052  4  9  8  80       
PG15  24931.816705   3155.702290  -9432.083895     92.239942  3  6  6 109       
PG16  -5402.495933 -16754.397991 -20062.676487   -430.550103  5  9  4 109       
PG17 -11823.072386  13227.906300  20241.339840    723.587200  4  6  4  90       
PG18  10479.777853 -11267.599761 -21615.423643   -464.636425  7  6  8 120       
PG19  -1892.129843  14786.957597  21781.731068    392.114631  5  6  4 108       
PG20   3468.919754  21825.819179 -14821.139136    404.141966  5  6    104       
PG21 -19816.647323 -15758.547096   9948.207597    145.518411  8  7  5  84       
PG22  -9333.522848  23742.123475   8348.934517     93.087703  6  7  9  89       
PG23  16407.552621 -18993.673663  -8390.077845     90.836300  5  8  6  99       
PG24  20108.546048  11784.431865  12720.342158   -359.283610  5  2  4 101       
PG25  18238.324378 -12894.169982  13841.627671    475.158948  6  3  5  89       
PG26    487.002465 -23192.477349 -12736.509129    219.937057  7  7  6 124       
PG27 -13853.887162 -12960.438400 -19012.076900    -62.899304  6  5  4 117       
PG28  -2751.133835 -22421.238534  13947.507239    -35.651495  5  7  4 103       
PG29  24443.257949  -4790.708624  -9413.569636   -610.226546  5  7  2 116       
PG30  -4396.289856  18799.937912 -18006.938447   -473.395524  5  7  3 103       
PG31  -8945.443564 -24079.982531   5621.584038   -225.236643  6  9  4  95       
PG32   6731.315166 -14890.596091  21080.005296   -579.621201  4  7  3  98       
*  2023 10 30 18 15  0.00000000
PG01 -18878.651323 -10500.469795  15337.078029    163.296147  7  5  5 111       
PG02 -20502.440890 -13752.645719  10551.117975   -535.412919  6  8  5  90       
PG03 -15923.339938    565.995191  21081.755713    -46.462550  5  5  4  95       
PG04 -26410.872210  -1148.943735   3210.785639    199.165918  8  4  4  74       
PG05   9604.612758  13822.236676 -20705.732362   -148.507673  4  6  3 100       
PG06   2789.232430  21820.000847  14885.522215    518.425084  5  6  5  89       
PG07 -13438.944343   7259.135057 -21271.015138     26.471171  2  8  3 110       
PG08 -22936.478961  -6307.990165 -12306.797772   -149.739112  6  3  4  99       
PG09 -24701.690165   7241.998471  -6755.041296    -17.437269  4  4  5  91       
PG10  10560.051416 -24144.354140   1359.591335    -59.431818  5  5  4  97       
PG11  11570.387165  23667.036983   3620.004753   -438.570994  5  9  4  74       
PG12  15381.950348   2698.199976  21200.137537   -441.633727  6     6  85       
PG13  14957.683217  13205.134029 -17837.323404    589.853854  6  8  5 135       
PG14 -13426.458420  22705.450643  -2130.268130    229.123828  4  9  8  81       
PG15  23849.720767   3630.647293 -11853.013607     92.243200  2  6  5 111       
PG16  -4125.159547 -18515.256870 -18713.228915   -430.544428  5  9  4 112       
PG17 -13969.794417  13097.666632  18894.385586    723.586938  4  6  4  87       
PG18  11804.308246  -9156.259047 -21943.701480   -464.646633  7  6  8 118       
PG19  -4404.050218  14593.566246  21519.603716    392.119272  5  6  3 100       
PG20   2792.658655  23261.911644 -12641.408848    404.140102  5  6  1  79       
PG21 -20242.500037 -16570.759824   7368.820186    145.517983  8  7  5  81       
PG22  -9909.400992  24253.466111   5653.723052     93.081654  6  7  9  73       
PG23  16103.540763 -17903.585189 -10988.897967     90.841773  5  7  6 105       
PG24  20740.019195  13025.435024  10390.131478   -359.292072  5  4  4  97       
PG25  17647.775537 -11216.129290  15895.102856    475.160363  6  1  5 100       
PG26   1287.448746 -24286.528213 -10368.199840    219.934871  6  7  5 118       
PG27 -11674.877319 -13149.553336 -20282.280049    -62.904306  6  5  4 119       
PG28  -1628.816873 -21107.377533  16016.731842    -35.658537  5  6  5  99       
PG29  25351.245665  -4566.228088  -6739.435370   -610.226476  5  7  2 123       
PG30  -5698.675409  17048.360056 -19350.956224   -473.392154  4  7  3 107       
PG31  -8264.217063 -23519.550435   8334.349682   -225.236947  6  9  4  86       
PG32   9059.358520 -14922.287780  20138.733059   -579.625589  5  7  3  97       
*  2023 10 30 18 30  0.00000000
PG01 -19738.284518 -11931.646009  13126.128812    163.295870  7  5  5 112       
PG02 -21006.153555 -14624.839320   7957.462869   -535.408687  6  8  5  87       
PG03 -14965.875892  -1718.284516  21716.380830    -46.440821  5  5  3 107       
PG04 -25905.398325  -1420.739124   5999.313445    199.175408  8  4  4  60       
PG05   8701.368778  15904.807249 -19560.451315   -148.509300  4  6  3 105       
PG06   1638.813917  20421.923312  16919.392197    518.416774  5  6  5  98       
PG07 -14906.668937   5215.620684 -20939.903888     26.462155  2  7  3 112       
PG08 -21465.672578  -6698.526408 -14527.855738   -149.740096  6  3  4 100       
PG09 -25334.509065   7069.690896  -3999.870845    -17.427434  4  4  5  90       
PG10  10751.081930 -24025.773107  -1556.114350    -59.433366  5  5  5  88       
PG11  11064.770179  23317.210665   6406.760730   -438.586171  5  9  4  89       
PG12  14248.415108   4934.302460  21587.701670   -441.637563  6     6  97       
PG13  12873.205370  13247.667640 -19364.311748    589.859149  6  8  6 137       
PG14 -13524.108774  22206.035525  -4931.309553    229.133521  3  9  8  68       
PG15  22543.479000   4217.836249 -14077.129032     92.246445  3  5  5 112       
PG16  -3021.429379 -20196.307065 -17044.885337   -430.538878  5  9  4 121       
PG17 -15954.789432  13078.143444  17234.500657    723.586672  4  6  4  72       
PG18  13249.314139  -7108.337839 -21893.816711   -464.656871  6  5  8 117       
PG19  -6874.040635  14533.562275  20879.225876    392.123902  5  5  3 101       
PG20   2255.044881  24479.809681 -10245.611260    404.138451  5  7  2  68       
PG21 -20520.715589 -17141.419285   4671.062132    145.517335  7  8  5  82       
PG22 -10310.146167  24526.619666   2863.853029     93.074932  6  6  9  61       
PG23  15750.006808 -16535.611343 -13396.648957     90.847221  5  6  6 113       
PG24  21252.268241  14023.997411   7881.936425   -359.300559  5  5  4  93       
PG25  17054.413547  -9308.732702  17665.763178    475.161850  6     4 105       
PG26   1941.849375 -25156.383766  -7819.000401    219.932620  6  8  5 111       
PG27  -9384.719913 -13469.508717 -21214.386799    -62.909280  6  5  4 119       
PG28   -305.290078 -19680.826973  17809.892482    -35.665542  5  5  5 105       
PG29  25961.458652  -4383.072140  -3950.167986   -610.226742  4  6  2 112       
PG30  -7158.863466  15252.995236 -20356.363665   -473.388847  4  7  3 110       
PG31  -7383.886440 -22744.832838  10899.131764   -225.237472  6  9  4  76       
PG32  11260.647885 -15061.411882  18854.481196   -579.630012  5  7  2  97       
EOF
